[{"OBJECT_NAME":"SHIYAN-1 (SY-1)","OBJECT_ID":"2004-012A","EPOCH":"2026-03-09T17:40:34.066560","MEAN_MOTION":15.31043463,"ECCENTRICITY":0.00058726,"INCLINATION":97.8764,"RA_OF_ASC_NODE":140.5238,"ARG_OF_PERICENTER":23.6952,"MEAN_ANOMALY":336.4557,"EPHEMERIS_TYPE":0,"CLASSIFICATION_TYPE":"U","NORAD_CAT_ID":28220,"ELEMENT_SET_NO":999,"REV_AT_EPOCH":19586,"BSTAR":0.00054854449,"MEAN_MOTION_DOT":0.00016393,"MEAN_MOTION_DDOT":0},{"OBJECT_NAME":"STARLINK-34807","OBJECT_ID":"2025-161P","EPOCH":"2026-03-09T21:09:15.021504","MEAN_MOTION":15.3021004,"ECCENTRICITY":0.00014152,"INCLINATION":53.1599,"RA_OF_ASC_NODE":292.9933,"ARG_OF_PERICENTER":158.7367,"MEAN_ANOMALY":201.3693,"EPHEMERIS_TYPE":0,"CLASSIFICATION_TYPE":"U","NORAD_CAT_ID":65028,"ELEMENT_SET_NO":999,"REV_AT_EPOCH":3536,"BSTAR":0.00071477386,"MEAN_MOTION_DOT":0.00020876,"MEAN_MOTION_DDOT":0}]
