SHIYAN-1 (SY-1)         
1 28220U 04012A   26068.73650539  .00016393  00000+0  54854-3 0  9991
2 28220  97.8764 140.5238 0005873  23.6952 336.4557 15.31043463195862
STARLINK-34807          
1 65028U 25161P   26068.88142385  .00020876  00000+0  71477-3 0  9998
2 65028  53.1599 292.9933 0001415 158.7367 201.3693 15.30210040 35367
